satname,norad_id,inclination_deg,eccentricity,mean_motion_rev_per_day,perigee_km,apogee_km,l1,l2
STARLINK-1446,45663,53.0247,0.0005971,15.40250539,441.2949555942587,449.44358678331173,1 45663U 20035G   26012.99144339  .00011177  00000+0  28302-3 0  9991,2 45663  53.0247 263.4278 0005971  99.0178 261.1501 15.40250539311088
STARLINK-1448,45665,53.0538,0.0001114,15.12043662,529.198806667715,530.7379325440634,1 45665U 20035J   26013.66670139  .00381701  00000+0  20819-1 0  9996,2 45665  53.0538 313.4649 0001114  93.0144 211.2725 15.12043662  5690
STARLINK-1451,45668,53.055,0.0002857,15.07167978,542.8809155879007,546.8367153968738,1 45668U 20035M   26013.55939471  .00009082  00000+0  61504-3 0  9991,2 45668  53.0550 314.3848 0002857  97.4700 262.6614 15.07167978310427
STARLINK-1452,45669,53.0381,0.0003808,15.35788412,455.97627462098535,461.1831180569179,1 45669U 20035N   26013.46192177  .00052774  00000+0  14942-2 0  9995,2 45669  53.0381 282.9747 0003808 140.2059 219.9222 15.35788412310859
STARLINK-1453,45670,53.0541,0.0007051,15.40632972,439.4295621689007,449.0504782427952,1 45670U 20035P   26013.45178163  .00069242  00000+0  16675-2 0  9998,2 45670  53.0541 276.9876 0007051 117.2046 242.9677 15.40632972310821
STARLINK-1454,45671,53.0551,0.0001567,15.12622357,527.124110304826,529.2885583057969,1 45671U 20035Q   26013.66670139  .01237011  00000+0  64823-1 0  9991,2 45671  53.0551 313.5404 0001567  98.6290  28.7185 15.12622357  5805
STARLINK-1456,45673,53.0556,0.0006705,15.388082,445.0544092019236,454.2104480056814,1 45673U 20035S   26013.54982577  .00035287  00000+0  91132-3 0  9997,2 45673  53.0556 308.7058 0006705  96.1887 263.9880 15.38808200310509
STARLINK-1457,45674,53.0515,0.0014249,15.55328513,391.53797648314685,410.85772494070443,1 45674U 20035T   26013.40068153  .00030550  00000+0  44573-3 0  9993,2 45674  53.0515 295.6546 0014249  85.3670 274.8968 15.55328513310649
STARLINK-1458,45675,53.055,4.53e-05,15.11839069,530.2786266742414,530.904557484685,1 45675U 20035U   26013.66670139  .00073744  00000+0  42383-2 0  9993,2 45675  53.0550 313.5909 0000453  57.1273 341.6805 15.11839069  5807
STARLINK-1460,45676,53.055,0.0001926,15.06398827,545.8813301919963,548.5489758413396,1 45676U 20035V   26013.56697103 -.00001378  00000+0 -73603-4 0  9990,2 45676  53.0550 314.0731 0001926  84.9217 275.1992 15.06398827310385
STARLINK-1392,45677,53.0544,0.0001452,15.06408166,546.1809734608378,548.192087414076,1 45677U 20035W   26013.11361661  .00008542  00000+0  59153-3 0  9990,2 45677  53.0544 316.1104 0001452  87.4252 272.6903 15.06408166310356
STARLINK-1394,45679,53.0544,0.0005369,15.39468697,444.01457409141585,451.3441356932981,1 45679U 20035Y   26013.20154519  .00050404  00000+0  12675-2 0  9995,2 45679  53.0544 300.3510 0005369 102.1443 258.0162 15.39468697310583
STARLINK-1402,45685,53.0518,0.0010278,15.35858287,451.3457695107227,465.398898097289,1 45685U 20035AE  26013.17852788  .00048371  00000+0  13664-2 0  9990,2 45685  53.0518 285.9001 0010278  78.9547 281.2611 15.35858287310798
STARLINK-1404,45686,53.0558,0.0001737,15.06396355,546.0197943758376,548.4256643458175,1 45686U 20035AF  26013.07030257 -.00000665  00000+0 -25745-4 0  9990,2 45686  53.0558 306.3038 0001737  88.2009 271.9179 15.06396355310491
STARLINK-1413,45689,53.0559,0.0001668,15.06400447,546.0550400370457,548.3653358589454,1 45689U 20035AJ  26013.22142369  .00000309  00000+0  39636-4 0  9995,2 45689  53.0559 305.6233 0001668  94.2263 265.8917 15.06400447310429
STARLINK-1417,45693,53.0537,0.0006958,15.09422519,533.1512113842082,542.7756567482538,1 45693U 20035AN  26013.49496963  .00009598  00000+0  61040-3 0  9993,2 45693  53.0537 303.8243 0006958  77.6688 282.5081 15.09422519310553
STARLINK-1420,45695,53.0533,9.31e-05,15.13434825,525.0916416750906,526.3771425282985,1 45695U 20035AQ  26013.66670139  .00082180  00000+0  45105-2 0  9994,2 45695  53.0533 283.5503 0000931 134.7933 172.0042 15.13434825  5747
STARLINK-1422,45696,53.0628,0.0001494,15.08932281,538.4278480483408,540.494826431508,1 45696U 20035AR  26013.66670139  .00080037  00000+0  49774-2 0  9990,2 45696  53.0628 303.6091 0001494 113.3608 112.1390 15.08932281  5593
STARLINK-1351,45697,53.0546,0.0001888,15.18998819,507.5648621427572,510.16539414634553,1 45697U 20035AS  26013.66670139  .00083131  00000+0  38943-2 0  9995,2 45697  53.0546 282.8501 0001888 100.9259 287.7680 15.18998819  5791
STARLINK-1398,45699,53.0442,0.0006342,15.68547607,358.77986420885736,367.3303923043377,1 45699U 20035AU  26013.56737995  .00146561  00000+0  12507-2 0  9995,2 45699  53.0442 216.0870 0006342 133.3573 226.7972 15.68547607311804
STARLINK-1400,45700,53.055,0.0001479,15.11975755,529.153470054699,531.1969488062487,1 45700U 20035AV  26013.66670139  .00501346  00000+0  27222-1 0  9990,2 45700  53.0550 283.5241 0001479  90.5897  86.9239 15.11975755  5749
STARLINK-1403,45701,53.0523,0.0001841,15.06395452,545.950537702628,548.5004561740016,1 45701U 20035AW  26013.47391516  .00000644  00000+0  62174-4 0  9992,2 45701  53.0523 284.4916 0001841  78.7574 281.3621 15.06395452310820
STARLINK-1407,45703,53.0387,0.0003974,15.49473387,415.5646526649789,420.96643340618266,1 45703U 20035AY  26012.90202690  .00064096  00000+0  11441-2 0  9995,2 45703  53.0387 225.4586 0003974 269.0447  91.0106 15.49473387311614
STARLINK-1411,45706,53.0481,0.0002628,15.52642727,407.2299359043982,410.79726225927607,1 45706U 20035BB  26013.04070704  .00041499  00000+0  66642-3 0  9999,2 45706  53.0481 251.3014 0002628 161.1735 198.9372 15.52642727311255
STARLINK-1423,45710,53.0545,7.05e-05,15.15801526,518.0600518361744,519.0324841769634,1 45710U 20035BF  26013.66670139  .00082946  00000+0  42582-2 0  9998,2 45710  53.0545 283.4163 0000705  97.5649 196.2989 15.15801526  5744
STARLINK-1433,45711,53.0535,0.0001386,15.19176106,507.3748472999432,509.2837757615007,1 45711U 20035BG  26013.66670139  .01253314  00000+0  53762-1 0  9990,2 45711  53.0535 283.3757 0001386  96.9113 319.3925 15.19176106  5793
STARLINK-1434,45712,53.0513,0.0003941,15.20611822,501.2817182490817,506.7062138765332,1 45712U 20035BH  26013.14129435  .00026747  00000+0  12147-2 0  9992,2 45712  53.0513 276.1294 0003941  63.4974 296.6425 15.20611822310926
STARLINK-1465,45731,53.0538,0.0002665,15.1554364,517.4904343050785,521.1667834746168,1 45731U 20038B   26013.66670139  .00107740  00000+0  55475-2 0  9999,2 45731  53.0538 123.4443 0002665  92.1101 107.1100 15.15543640  5795
STARLINK-1471,45735,53.0506,0.0002542,15.44644899,430.69042202147375,434.15291004728624,1 45735U 20038F   26013.40295839  .00015616  00000+0  33822-3 0  9998,2 45735  53.0506  46.0602 0002542  65.4494 294.6776 15.44644899308970
STARLINK-1474,45738,53.0301,0.0005485,15.8525376,311.9387851620613,319.28182595626004,1 45738U 20038J   26013.66670139  .00143914  00000+0  58585-3 0  9995,2 45738  53.0301 344.6098 0005485  98.5443  47.2994 15.85253760  5956
STARLINK-1480,45741,53.0533,0.0004367,15.38775518,446.7473756394502,452.71083389535397,1 45741U 20038M   26013.56371141  .00059864  00000+0  15363-2 0  9995,2 45741  53.0533 119.1857 0004367 356.3360   3.7611 15.38775518307963
STARLINK-1500,45744,53.0394,0.0003358,15.31603429,468.72793390939205,473.32783304513487,1 45744U 20038Q   26013.52909627  .00012731  00000+0  42252-3 0  9990,2 45744  53.0394  90.8634 0003358  65.6723 294.4627 15.31603429308355
STARLINK-1504,45746,53.0261,0.0003692,15.4930058,416.26148992449544,421.2803267240006,1 45746U 20038S   26013.47106462  .00020261  00000+0  37143-3 0  9992,2 45746  53.0261  47.7942 0003692  35.2138 324.9113 15.49300580308942
STARLINK-1506,45747,53.0802,0.0004004,15.2406602,490.83998810705725,496.3428682323347,1 45747U 20038T   26013.48721451  .00019726  00000+0  81381-3 0  9992,2 45747  53.0802  97.3395 0004004  79.3381 280.8067 15.24066020308268
STARLINK-1464,45751,53.0541,0.0004802,15.12837254,524.2361807705693,530.8684047673441,1 45751U 20038X   26013.66670139  .00078084  00000+0  43604-2 0  9990,2 45751  53.0541 103.4660 0004802 191.8856  88.8517 15.12837254  5790
STARLINK-1477,45754,53.052,0.0002313,15.11031348,531.4548525618557,534.6519692459406,1 45754U 20038AA  26013.52813391  .00013135  00000+0  79285-3 0  9998,2 45754  53.0520 103.0091 0002313 201.2018 158.8878 15.11031348308181
STARLINK-1478,45755,53.0541,0.0001569,15.38435792,449.66279627698077,451.8056960740305,1 45755U 20038AB  26013.66670139  .01931568  00000+0  44796-1 0  9992,2 45755  53.0541 101.5759 0001569  52.5506 297.0915 15.38435792  5744
STARLINK-1484,45756,53.0095,0.0004605,15.76883368,336.18380462974983,342.3705430838718,1 45756U 20038AC  26013.16830601  .00088948  00000+0  53775-3 0  9993,2 45756  53.0095 338.3980 0004605  85.9082 274.2463 15.76883368309883
STARLINK-1493,45759,53.0543,0.0001999,15.11559322,530.0627477627322,532.8251982357369,1 45759U 20038AF  26013.66670139  .00077158  00000+0  44661-2 0  9993,2 45759  53.0543 103.5763 0001999  45.6194  56.6408 15.11559322  5798
STARLINK-1494,45760,53.0516,0.0001284,15.63089309,377.87189278769165,379.6070586666574,1 45760U 20038AG  26013.66670139  .00342544  00000+0  35445-2 0  9999,2 45760  53.0516  63.1109 0001284  59.2671  92.3259 15.63089309  5884
STARLINK-1502,45764,53.0543,0.0001284,15.09323192,537.3787920992854,539.1549246101104,1 45764U 20038AL  26013.66670139  .00074055  00000+0  45616-2 0  9993,2 45764  53.0543 103.5813 0001284  73.6962 206.6376 15.09323192  5692
STARLINK-1470,45772,53.0452,0.0001731,15.23442613,494.2761301330356,496.655771474605,1 45772U 20038AU  26013.44565232  .00027957  00000+0  11678-2 0  9995,2 45772  53.0452  69.7654 0001731 151.4633 208.6459 15.23442613308644
STARLINK-1482,45773,53.0561,0.0001502,15.06400658,546.1693542132844,548.2497283142793,1 45773U 20038AV  26013.45181717 -.00000341  00000+0 -40201-5 0  9996,2 45773  53.0561  84.5907 0001502  84.3338 275.7823 15.06400658308435
